{
  "norad_id": 67910,
  "name": "STARLINK-36847",
  "history": [
    {
      "epoch": "2026-03-28T22:00:01.999584Z",
      "apogee_km": 483.8081193636235,
      "perigee_km": 482.2546136220817,
      "latitude_deg": -42.96042202383208,
      "longitude_deg": -102.7860053094744,
      "height_km": 495.5260753703236,
      "semi_major_axis_km": 6861.168366492852,
      "eccentricity": 0.00011321,
      "inclination_deg": 43.0013,
      "raan_deg": 136.8,
      "arg_perigee_deg": 268.879,
      "mean_anomaly_deg": 6.0782,
      "mean_motion_rev_day": 15.27585921
    },
    {
      "epoch": "2026-03-29T04:00:01.999584Z",
      "apogee_km": 483.7945505322359,
      "perigee_km": 482.33997522850586,
      "latitude_deg": -20.963871127801834,
      "longitude_deg": 92.92006932725309,
      "height_km": 487.39911426521854,
      "semi_major_axis_km": 6861.204262880371,
      "eccentricity": 0.000106,
      "inclination_deg": 43.001,
      "raan_deg": 135.3891,
      "arg_perigee_deg": 266.3501,
      "mean_anomaly_deg": 305.047,
      "mean_motion_rev_day": 15.27573933
    }
  ]
}